  Eccentricity: 0
  EccentricityReal: 0.2477692
  ArgumentOfPerigee: 2.009103
  Inclination: 0
  InclinationReal: 0.2996067
  RightAscensionOfAscendingNode: 1.924108
  MeanAnomaly: 0
  Period: 90655.48
  PeriodReal: 90655.48
  Plane: 0
  TrueAnomaly: 0
  Epoch: 2451545
  Reality: 0
  RealitySemiMajorAxisScale: 4.2314006e-11
  Speed: 100
  SpeedMultiplier: 0.1
  TransitionSpeedMultiplier: 1
  MaxIterations: 20
--- !u!114 &114439603702025226
MonoBehaviour:
  m_ObjectHideFlags: 1
  m_PrefabParentObject: {fileID: 0}
  m_PrefabInternal: {fileID: 100100000}
  m_GameObject: {fileID: 1032366592174786}
  m_Enabled: 1
  m_EditorHideFlags: 0
  m_Script: {fileID: 11500000, guid: 6d14ec0567e8de744b78308336c5fa34, type: 3}
  m_Name: 
  m_EditorClassIdentifier: 
  Sun: {fileID: 0}
--- !u!114 &114614694845506196
MonoBehaviour:
  m_ObjectHideFlags: 1
  m_PrefabParentObject: {fileID: 0}
  m_PrefabInternal: {fileID: 100100000}
  m_GameObject: {fileID: 1850938566429142}
  m_Enabled: 1
  m_EditorHideFlags: 0
  m_Script: {fileID: 11500000, guid: 81f075d41bf2e0849b35226d49caa003, type: 3}
  m_Name: 
  m_EditorClassIdentifier: 
  Sun: {fileID: 0}
--- !u!114 &114638047983639390
MonoBehaviour:
  m_ObjectHideFlags: 1
  m_PrefabParentObject: {fileID: 0}
  m_PrefabInternal: {fileID: 100100000}
  m_GameObject: {fileID: 1616965535899276}
  m_Enabled: 1
  m_EditorHideFlags: 0
  m_Script: {fileID: 11500000, guid: 6d14ec0567e8de744b78308336c5fa34, type: 3}
  m_Name: 
  m_EditorClassIdentifier: 
  Sun: {fileID: 0}
--- !u!114 &114649111109115504
MonoBehaviour:
  m_ObjectHideFlags: 1
  m_PrefabParentObject: {fileID: 0}
  m_PrefabInternal: {fileID: 100100000}
  m_GameObject: {fileID: 1831825849932192}
  m_Enabled: 1
  m_EditorHideFlags: 0
  m_Script: {fileID: 11500000, guid: 11e705904898e9e41b49ee058ee58850, type: 3}
  m_Name: 
  m_EditorClassIdentifier: 
  orbitMaterial: {fileID: 2100000, guid: 3f7446375ec57ca4abdd9781bcb5d89d, type: 2}
  orbitStepCount: 200
  pointOfInterestMarker: {fileID: 0}
  pointOfInterestAngle: 160
  snapPointOfInterestToPosition: 1
--- !u!114 &114750330885889456
MonoBehaviour:
  m_ObjectHideFlags: 1
  m_PrefabParentObject: {fileID: 0}
  m_PrefabInternal: {fileID: 100100000}
  m_GameObject: {fileID: 1993221894252086}
  m_Enabled: 1
  m_EditorHideFlags: 0
  m_Script: {fileID: 11500000, guid: de2906fc648115c4987eaf5c8d397f1f, type: 3}
  m_Name: 
  m_EditorClassIdentifier: 
--- !u!114 &114759634821150102
MonoBehaviour:
  m_ObjectHideFlags: 1
  m_PrefabParentObject: {fileID: 0}
  m_PrefabInternal: {fileID: 100100000}
  m_GameObject: {fileID: 1993221894252086}
  m_Enabled: 1
  m_EditorHideFlags: 0
  m_Script: {fileID: 11500000, guid: 4c2eeafa42b689a4aaec9a3be3cfef15, type: 3}
  m_Name: 
  m_EditorClassIdentifier: 
  VoiceCommands: []
  SelectionPOITarget: {fileID: 0}
--- !u!114 &114780059697530202
MonoBehaviour:
  m_ObjectHideFlags: 1
  m_PrefabParentObject: {fileID: 0}
  m_PrefabInternal: {fileID: 100100000}
  m_GameObject: {fileID: 1477787837683724}
  m_Enabled: 1
  m_EditorHideFlags: 0
  m_Script: {fileID: 11500000, guid: c8725130c053f7541b9a408e493e9f91, type: 3}
  m_Name: 
  m_EditorClassIdentifier: 
  VoiceCommands: []
  pointOfInterest: {fileID: 0}
--- !u!114 &114917919787128040
MonoBehaviour:
  m_ObjectHideFlags: 1
  m_PrefabParentObject: {fileID: 0}
  m_PrefabInternal: {fileID: 100100000}
  m_GameObject: {fileID: 1993221894252086}
  m_Enabled: 1
  m_EditorHideFlags: 0
  m_Script: {fileID: 11500000, guid: 6f892c269d3682144bd442e2a3391add, type: 3}
  m_Name: 
  m_EditorClassIdentifier: 
--- !u!135 &135344071168951842
SphereCollider:
  m_ObjectHideFlags: 1
  m_PrefabParentObject: {fileID: 0}
  m_PrefabInternal: {fileID: 100100000}
  m_GameObject: {fileID: 1616965535899276}
  m_Material: {fileID: 0}
  m_IsTrigger: 0
  m_Enabled: 1
  serializedVersion: 2
  m_Radius: 0.008565574
  m_Center: {x: 0, y: 0, z: 0}
--- !u!205 &205258979142848216
LODGroup:
  m_ObjectHideFlags: 1
  m_PrefabParentObject: {fileID: 0}
  m_PrefabInternal: {fileID: 100100000}
  m_GameObject: {fileID: 1993221894252086}
  serializedVersion: 2
  m_LocalReferencePoint: {x: 1.1641532e-10, y: 0.00000009825453, z: 0.0000008442439}
  m_Size: 0.0012692877
  m_FadeMode: 1
  m_AnimateCrossFading: 0
  m_LODs:
  - screenRelativeHeight: 0.027530862
    fadeTransitionWidth: 0
    renderers:
    - renderer: {fileID: 23578230101546734}
    - renderer: {fileID: 23151313605698606}
  - screenRelativeHeight: 0.0009895742
    fadeTransitionWidth: 0
    renderers:
    - renderer: {fileID: 23308419440889798}
  m_Enabled: 1
